{
"type": "FeatureCollection",
"name": "features",
"crs": { "type": "name", "properties": { "name": "urn:ogc:def:crs:OGC:1.3:CRS84" } },
"features": [
{ "type": "Feature", "properties": { "site_id": "site_000", "nearest_competitor_dist_m": 604.09758147169362, "nearest_transit_dist_m": 104.37837489222282, "competitor_count_1000m": 1, "transit_stop_count_1000m": 28, "wealth_poi_count_1000m": 11, "poi_diversity_1000m": 29, "road_density_1000m": 0.040997481084474777, "pop_1000m": 121683.5546875, "competitor_count_3000m": 31, "transit_stop_count_3000m": 178, "wealth_poi_count_3000m": 131, "poi_diversity_3000m": 126, "road_density_3000m": 0.045431254649374385, "pop_3000m": 975425.5625 }, "geometry": { "type": "Point", "coordinates": [ 77.5154765, 12.9562404 ] } },
{ "type": "Feature", "properties": { "site_id": "site_001", "nearest_competitor_dist_m": 921.10947891980129, "nearest_transit_dist_m": 72.006860184701935, "competitor_count_1000m": 4, "transit_stop_count_1000m": 5, "wealth_poi_count_1000m": 0, "poi_diversity_1000m": 16, "road_density_1000m": 0.026275533836236563, "pop_1000m": 4639.0302734375, "competitor_count_3000m": 58, "transit_stop_count_3000m": 28, "wealth_poi_count_3000m": 48, "poi_diversity_3000m": 78, "road_density_3000m": 0.029383126919538646, "pop_3000m": 60820.2890625 }, "geometry": { "type": "Point", "coordinates": [ 77.6251506, 12.8737596 ] } },
{ "type": "Feature", "properties": { "site_id": "site_002", "nearest_competitor_dist_m": 2265.8166652537493, "nearest_transit_dist_m": 412.05961122146971, "competitor_count_1000m": 0, "transit_stop_count_1000m": 7, "wealth_poi_count_1000m": 0, "poi_diversity_1000m": 7, "road_density_1000m": 0.010518543347216887, "pop_1000m": 15381.705078125, "competitor_count_3000m": 4, "transit_stop_count_3000m": 44, "wealth_poi_count_3000m": 36, "poi_diversity_3000m": 66, "road_density_3000m": 0.012672288819082972, "pop_3000m": 166339.90625 }, "geometry": { "type": "Point", "coordinates": [ 77.6411129, 13.1035446 ] } },
{ "type": "Feature", "properties": { "site_id": "site_003", "nearest_competitor_dist_m": 906.30743188451231, "nearest_transit_dist_m": 851.75437648654326, "competitor_count_1000m": 1, "transit_stop_count_1000m": 5, "wealth_poi_count_1000m": 2, "poi_diversity_1000m": 14, "road_density_1000m": 0.008199306666161546, "pop_1000m": 23793.47265625, "competitor_count_3000m": 59, "transit_stop_count_3000m": 64, "wealth_poi_count_3000m": 118, "poi_diversity_3000m": 117, "road_density_3000m": 0.017890157085397703, "pop_3000m": 383472.40625 }, "geometry": { "type": "Point", "coordinates": [ 77.5862194, 13.1180418 ] } },
{ "type": "Feature", "properties": { "site_id": "site_004", "nearest_competitor_dist_m": 234.62017867379868, "nearest_transit_dist_m": 301.85820814675918, "competitor_count_1000m": 12, "transit_stop_count_1000m": 13, "wealth_poi_count_1000m": 56, "poi_diversity_1000m": 93, "road_density_1000m": 0.023608243055796341, "pop_1000m": 7635.9951171875, "competitor_count_3000m": 58, "transit_stop_count_3000m": 69, "wealth_poi_count_3000m": 211, "poi_diversity_3000m": 156, "road_density_3000m": 0.015132988554173454, "pop_3000m": 40593.55078125 }, "geometry": { "type": "Point", "coordinates": [ 77.7508276, 12.9666996 ] } },
{ "type": "Feature", "properties": { "site_id": "site_005", "nearest_competitor_dist_m": 721.55848290522545, "nearest_transit_dist_m": 709.83714633404179, "competitor_count_1000m": 12, "transit_stop_count_1000m": 3, "wealth_poi_count_1000m": 15, "poi_diversity_1000m": 38, "road_density_1000m": 0.018870946659691884, "pop_1000m": 3916.564453125, "competitor_count_3000m": 53, "transit_stop_count_3000m": 37, "wealth_poi_count_3000m": 247, "poi_diversity_3000m": 113, "road_density_3000m": 0.010985380120355491, "pop_3000m": 33952.171875 }, "geometry": { "type": "Point", "coordinates": [ 77.6952307, 12.9137851 ] } },
{ "type": "Feature", "properties": { "site_id": "site_006", "nearest_competitor_dist_m": 735.46025739468814, "nearest_transit_dist_m": 1051.5618940375025, "competitor_count_1000m": 1, "transit_stop_count_1000m": 0, "wealth_poi_count_1000m": 2, "poi_diversity_1000m": 20, "road_density_1000m": 0.017821817824174475, "pop_1000m": 2598.4814453125, "competitor_count_3000m": 61, "transit_stop_count_3000m": 31, "wealth_poi_count_3000m": 208, "poi_diversity_3000m": 153, "road_density_3000m": 0.014595187865308962, "pop_3000m": 23302.91796875 }, "geometry": { "type": "Point", "coordinates": [ 77.7363476, 12.9402241 ] } },
{ "type": "Feature", "properties": { "site_id": "site_007", "nearest_competitor_dist_m": 121.38116576895214, "nearest_transit_dist_m": 293.44182343063108, "competitor_count_1000m": 21, "transit_stop_count_1000m": 12, "wealth_poi_count_1000m": 50, "poi_diversity_1000m": 89, "road_density_1000m": 0.023845798648693569, "pop_1000m": 6910.36474609375, "competitor_count_3000m": 90, "transit_stop_count_3000m": 87, "wealth_poi_count_3000m": 443, "poi_diversity_3000m": 177, "road_density_3000m": 0.01901051746596159, "pop_3000m": 112272.765625 }, "geometry": { "type": "Point", "coordinates": [ 77.6537112, 12.9547083 ] } },
{ "type": "Feature", "properties": { "site_id": "site_008", "nearest_competitor_dist_m": 797.0994023571476, "nearest_transit_dist_m": 411.8981641231502, "competitor_count_1000m": 1, "transit_stop_count_1000m": 20, "wealth_poi_count_1000m": 34, "poi_diversity_1000m": 35, "road_density_1000m": 0.0084402742664258876, "pop_1000m": 6991.5302734375, "competitor_count_3000m": 95, "transit_stop_count_3000m": 87, "wealth_poi_count_3000m": 433, "poi_diversity_3000m": 164, "road_density_3000m": 0.01683731281348155, "pop_3000m": 60536.03515625 }, "geometry": { "type": "Point", "coordinates": [ 77.7233732, 12.9803758 ] } },
{ "type": "Feature", "properties": { "site_id": "site_009", "nearest_competitor_dist_m": 512.49599049496555, "nearest_transit_dist_m": 622.93487098215064, "competitor_count_1000m": 8, "transit_stop_count_1000m": 8, "wealth_poi_count_1000m": 16, "poi_diversity_1000m": 47, "road_density_1000m": 0.024445398072456027, "pop_1000m": 8707.263671875, "competitor_count_3000m": 96, "transit_stop_count_3000m": 123, "wealth_poi_count_3000m": 313, "poi_diversity_3000m": 167, "road_density_3000m": 0.031033035362521999, "pop_3000m": 85513.6171875 }, "geometry": { "type": "Point", "coordinates": [ 77.6676924, 12.9814391 ] } },
{ "type": "Feature", "properties": { "site_id": "site_010", "nearest_competitor_dist_m": 684.1008178064842, "nearest_transit_dist_m": 247.32675706710106, "competitor_count_1000m": 4, "transit_stop_count_1000m": 16, "wealth_poi_count_1000m": 11, "poi_diversity_1000m": 32, "road_density_1000m": 0.058520689099878384, "pop_1000m": 179296.15625, "competitor_count_3000m": 91, "transit_stop_count_3000m": 240, "wealth_poi_count_3000m": 319, "poi_diversity_3000m": 175, "road_density_3000m": 0.05480393070823121, "pop_3000m": 1716116.875 }, "geometry": { "type": "Point", "coordinates": [ 77.5570004, 12.969284 ] } },
{ "type": "Feature", "properties": { "site_id": "site_011", "nearest_competitor_dist_m": 67.242599623433009, "nearest_transit_dist_m": 279.7431818808962, "competitor_count_1000m": 13, "transit_stop_count_1000m": 20, "wealth_poi_count_1000m": 72, "poi_diversity_1000m": 90, "road_density_1000m": 0.055633539022030089, "pop_1000m": 10965.0986328125, "competitor_count_3000m": 128, "transit_stop_count_3000m": 201, "wealth_poi_count_3000m": 761, "poi_diversity_3000m": 177, "road_density_3000m": 0.043922189629096844, "pop_3000m": 213636.390625 }, "geometry": { "type": "Point", "coordinates": [ 77.6121185, 12.914529 ] } },
{ "type": "Feature", "properties": { "site_id": "site_012", "nearest_competitor_dist_m": 141.67771458618799, "nearest_transit_dist_m": 207.11087460001647, "competitor_count_1000m": 11, "transit_stop_count_1000m": 7, "wealth_poi_count_1000m": 24, "poi_diversity_1000m": 46, "road_density_1000m": 0.033250676139352557, "pop_1000m": 7923.83740234375, "competitor_count_3000m": 89, "transit_stop_count_3000m": 78, "wealth_poi_count_3000m": 270, "poi_diversity_3000m": 146, "road_density_3000m": 0.026639444022204833, "pop_3000m": 71685.140625 }, "geometry": { "type": "Point", "coordinates": [ 77.681617, 12.9682071 ] } },
{ "type": "Feature", "properties": { "site_id": "site_013", "nearest_competitor_dist_m": 731.51420187756764, "nearest_transit_dist_m": 1033.9566970324408, "competitor_count_1000m": 1, "transit_stop_count_1000m": 0, "wealth_poi_count_1000m": 7, "poi_diversity_1000m": 21, "road_density_1000m": 0.0076641762834782365, "pop_1000m": 319.76498413085938, "competitor_count_3000m": 13, "transit_stop_count_3000m": 19, "wealth_poi_count_3000m": 47, "poi_diversity_3000m": 107, "road_density_3000m": 0.008190848667555253, "pop_3000m": 18566.23046875 }, "geometry": { "type": "Point", "coordinates": [ 77.7504789, 12.9267756 ] } },
{ "type": "Feature", "properties": { "site_id": "site_014", "nearest_competitor_dist_m": 570.49089271843184, "nearest_transit_dist_m": 81.427854573264838, "competitor_count_1000m": 4, "transit_stop_count_1000m": 22, "wealth_poi_count_1000m": 11, "poi_diversity_1000m": 37, "road_density_1000m": 0.058403937392303727, "pop_1000m": 138005.03125, "competitor_count_3000m": 106, "transit_stop_count_3000m": 160, "wealth_poi_count_3000m": 233, "poi_diversity_3000m": 148, "road_density_3000m": 0.046548245950838514, "pop_3000m": 1132515.25 }, "geometry": { "type": "Point", "coordinates": [ 77.6130226, 13.0093877 ] } },
{ "type": "Feature", "properties": { "site_id": "site_015", "nearest_competitor_dist_m": 385.18700261830486, "nearest_transit_dist_m": 238.02136747147151, "competitor_count_1000m": 12, "transit_stop_count_1000m": 11, "wealth_poi_count_1000m": 55, "poi_diversity_1000m": 80, "road_density_1000m": 0.042167271457705664, "pop_1000m": 92735.03125, "competitor_count_3000m": 37, "transit_stop_count_3000m": 73, "wealth_poi_count_3000m": 202, "poi_diversity_3000m": 143, "road_density_3000m": 0.030945771608464314, "pop_3000m": 512446.25 }, "geometry": { "type": "Point", "coordinates": [ 77.5997363, 13.0637713 ] } },
{ "type": "Feature", "properties": { "site_id": "site_016", "nearest_competitor_dist_m": 271.30619372495028, "nearest_transit_dist_m": 218.817365584633, "competitor_count_1000m": 19, "transit_stop_count_1000m": 15, "wealth_poi_count_1000m": 108, "poi_diversity_1000m": 93, "road_density_1000m": 0.026051446528893601, "pop_1000m": 41684.62890625, "competitor_count_3000m": 109, "transit_stop_count_3000m": 92, "wealth_poi_count_3000m": 432, "poi_diversity_3000m": 150, "road_density_3000m": 0.024725175798977414, "pop_3000m": 163500.046875 }, "geometry": { "type": "Point", "coordinates": [ 77.6535912, 12.9130754 ] } },
{ "type": "Feature", "properties": { "site_id": "site_017", "nearest_competitor_dist_m": 907.98364469322667, "nearest_transit_dist_m": 172.07716238262097, "competitor_count_1000m": 2, "transit_stop_count_1000m": 22, "wealth_poi_count_1000m": 20, "poi_diversity_1000m": 46, "road_density_1000m": 0.060635145497237135, "pop_1000m": 107778.71875, "competitor_count_3000m": 53, "transit_stop_count_3000m": 154, "wealth_poi_count_3000m": 170, "poi_diversity_3000m": 118, "road_density_3000m": 0.052130935586597447, "pop_3000m": 760617.4375 }, "geometry": { "type": "Point", "coordinates": [ 77.5426839, 12.9291699 ] } },
{ "type": "Feature", "properties": { "site_id": "site_018", "nearest_competitor_dist_m": 830.56061228215481, "nearest_transit_dist_m": 45.587449465112883, "competitor_count_1000m": 1, "transit_stop_count_1000m": 24, "wealth_poi_count_1000m": 3, "poi_diversity_1000m": 23, "road_density_1000m": 0.014148224533353123, "pop_1000m": 73174.921875, "competitor_count_3000m": 44, "transit_stop_count_3000m": 124, "wealth_poi_count_3000m": 150, "poi_diversity_3000m": 137, "road_density_3000m": 0.032807845144159305, "pop_3000m": 890968.0625 }, "geometry": { "type": "Point", "coordinates": [ 77.5575291, 13.0498014 ] } },
{ "type": "Feature", "properties": { "site_id": "site_019", "nearest_competitor_dist_m": 323.78653562822655, "nearest_transit_dist_m": 108.01686954511915, "competitor_count_1000m": 5, "transit_stop_count_1000m": 6, "wealth_poi_count_1000m": 39, "poi_diversity_1000m": 41, "road_density_1000m": 0.01279431038520978, "pop_1000m": 6559.8828125, "competitor_count_3000m": 79, "transit_stop_count_3000m": 96, "wealth_poi_count_3000m": 336, "poi_diversity_3000m": 150, "road_density_3000m": 0.029281726344654469, "pop_3000m": 75932.125 }, "geometry": { "type": "Point", "coordinates": [ 77.6951302, 12.980962 ] } },
{ "type": "Feature", "properties": { "site_id": "site_020", "nearest_competitor_dist_m": 131.58801526449554, "nearest_transit_dist_m": 207.98349013547303, "competitor_count_1000m": 12, "transit_stop_count_1000m": 32, "wealth_poi_count_1000m": 35, "poi_diversity_1000m": 72, "road_density_1000m": 0.062954675476945748, "pop_1000m": 195108.171875, "competitor_count_3000m": 57, "transit_stop_count_3000m": 194, "wealth_poi_count_3000m": 172, "poi_diversity_3000m": 136, "road_density_3000m": 0.049867523222746839, "pop_3000m": 1267251.375 }, "geometry": { "type": "Point", "coordinates": [ 77.5297246, 12.9561456 ] } },
{ "type": "Feature", "properties": { "site_id": "site_021", "nearest_competitor_dist_m": 189.93645584564854, "nearest_transit_dist_m": 245.93360300791159, "competitor_count_1000m": 11, "transit_stop_count_1000m": 20, "wealth_poi_count_1000m": 29, "poi_diversity_1000m": 50, "road_density_1000m": 0.038749366511615167, "pop_1000m": 8113.37109375, "competitor_count_3000m": 65, "transit_stop_count_3000m": 138, "wealth_poi_count_3000m": 111, "poi_diversity_3000m": 137, "road_density_3000m": 0.043971164398678687, "pop_3000m": 65715.734375 }, "geometry": { "type": "Point", "coordinates": [ 77.5559574, 12.8879475 ] } },
{ "type": "Feature", "properties": { "site_id": "site_022", "nearest_competitor_dist_m": 1898.6768467116187, "nearest_transit_dist_m": 243.80608579212961, "competitor_count_1000m": 0, "transit_stop_count_1000m": 6, "wealth_poi_count_1000m": 0, "poi_diversity_1000m": 13, "road_density_1000m": 0.030067090440204901, "pop_1000m": 32804.2578125, "competitor_count_3000m": 7, "transit_stop_count_3000m": 54, "wealth_poi_count_3000m": 48, "poi_diversity_3000m": 81, "road_density_3000m": 0.018566223781726104, "pop_3000m": 224166.984375 }, "geometry": { "type": "Point", "coordinates": [ 77.627241, 13.1045204 ] } },
{ "type": "Feature", "properties": { "site_id": "site_023", "nearest_competitor_dist_m": 267.95064957065131, "nearest_transit_dist_m": 279.77391717810792, "competitor_count_1000m": 4, "transit_stop_count_1000m": 9, "wealth_poi_count_1000m": 3, "poi_diversity_1000m": 16, "road_density_1000m": 0.052857071947408275, "pop_1000m": 9579.802734375, "competitor_count_3000m": 31, "transit_stop_count_3000m": 81, "wealth_poi_count_3000m": 53, "poi_diversity_3000m": 67, "road_density_3000m": 0.035907423350361137, "pop_3000m": 73876.78125 }, "geometry": { "type": "Point", "coordinates": [ 77.6819967, 13.0222801 ] } },
{ "type": "Feature", "properties": { "site_id": "site_024", "nearest_competitor_dist_m": 280.48945902533569, "nearest_transit_dist_m": 1211.877756839061, "competitor_count_1000m": 13, "transit_stop_count_1000m": 0, "wealth_poi_count_1000m": 16, "poi_diversity_1000m": 31, "road_density_1000m": 0.012407022767994233, "pop_1000m": 4491.5859375, "competitor_count_3000m": 93, "transit_stop_count_3000m": 95, "wealth_poi_count_3000m": 440, "poi_diversity_3000m": 179, "road_density_3000m": 0.0153562597372521, "pop_3000m": 47351.828125 }, "geometry": { "type": "Point", "coordinates": [ 77.7366034, 12.9674196 ] } },
{ "type": "Feature", "properties": { "site_id": "site_025", "nearest_competitor_dist_m": 991.93443050680582, "nearest_transit_dist_m": 826.97074725434368, "competitor_count_1000m": 1, "transit_stop_count_1000m": 2, "wealth_poi_count_1000m": 5, "poi_diversity_1000m": 13, "road_density_1000m": 0.022281580498206967, "pop_1000m": 3026.4189453125, "competitor_count_3000m": 36, "transit_stop_count_3000m": 63, "wealth_poi_count_3000m": 86, "poi_diversity_3000m": 91, "road_density_3000m": 0.030329483526043238, "pop_3000m": 54530.34375 }, "geometry": { "type": "Point", "coordinates": [ 77.6550085, 13.0497629 ] } },
{ "type": "Feature", "properties": { "site_id": "site_026", "nearest_competitor_dist_m": 243.43722662645789, "nearest_transit_dist_m": 112.48538293101318, "competitor_count_1000m": 6, "transit_stop_count_1000m": 26, "wealth_poi_count_1000m": 58, "poi_diversity_1000m": 70, "road_density_1000m": 0.033407617412992668, "pop_1000m": 103308.34375, "competitor_count_3000m": 100, "transit_stop_count_3000m": 248, "wealth_poi_count_3000m": 508, "poi_diversity_3000m": 185, "road_density_3000m": 0.04312381621883387, "pop_3000m": 1084775.875 }, "geometry": { "type": "Point", "coordinates": [ 77.5845805, 12.941592 ] } },
{ "type": "Feature", "properties": { "site_id": "site_027", "nearest_competitor_dist_m": 1361.0284765593115, "nearest_transit_dist_m": 328.35060837154953, "competitor_count_1000m": 0, "transit_stop_count_1000m": 10, "wealth_poi_count_1000m": 8, "poi_diversity_1000m": 15, "road_density_1000m": 0.038354135829494415, "pop_1000m": 4870.1748046875, "competitor_count_3000m": 23, "transit_stop_count_3000m": 98, "wealth_poi_count_3000m": 50, "poi_diversity_3000m": 65, "road_density_3000m": 0.036455147739572299, "pop_3000m": 55348.5703125 }, "geometry": { "type": "Point", "coordinates": [ 77.5287178, 12.9019322 ] } },
{ "type": "Feature", "properties": { "site_id": "site_028", "nearest_competitor_dist_m": 427.8126901350588, "nearest_transit_dist_m": 115.97308141765937, "competitor_count_1000m": 4, "transit_stop_count_1000m": 10, "wealth_poi_count_1000m": 2, "poi_diversity_1000m": 15, "road_density_1000m": 0.054120628793129365, "pop_1000m": 42068.515625, "competitor_count_3000m": 8, "transit_stop_count_3000m": 86, "wealth_poi_count_3000m": 18, "poi_diversity_3000m": 45, "road_density_3000m": 0.035255834938965058, "pop_3000m": 370020.9375 }, "geometry": { "type": "Point", "coordinates": [ 77.4882238, 12.9567886 ] } },
{ "type": "Feature", "properties": { "site_id": "site_029", "nearest_competitor_dist_m": 115.12204339173154, "nearest_transit_dist_m": 59.771570241345906, "competitor_count_1000m": 26, "transit_stop_count_1000m": 42, "wealth_poi_count_1000m": 123, "poi_diversity_1000m": 101, "road_density_1000m": 0.047314893717027712, "pop_1000m": 102605.125, "competitor_count_3000m": 97, "transit_stop_count_3000m": 245, "wealth_poi_count_3000m": 614, "poi_diversity_3000m": 191, "road_density_3000m": 0.046848152281528652, "pop_3000m": 682548.75 }, "geometry": { "type": "Point", "coordinates": [ 77.5849303, 12.9286443 ] } },
{ "type": "Feature", "properties": { "site_id": "site_030", "nearest_competitor_dist_m": 2181.7699363637807, "nearest_transit_dist_m": 98.648060865202197, "competitor_count_1000m": 0, "transit_stop_count_1000m": 13, "wealth_poi_count_1000m": 0, "poi_diversity_1000m": 7, "road_density_1000m": 0.062720145413921555, "pop_1000m": 143645.75, "competitor_count_3000m": 5, "transit_stop_count_3000m": 105, "wealth_poi_count_3000m": 17, "poi_diversity_3000m": 44, "road_density_3000m": 0.050404744119858493, "pop_3000m": 933636.25 }, "geometry": { "type": "Point", "coordinates": [ 77.5022291, 12.9966929 ] } },
{ "type": "Feature", "properties": { "site_id": "site_031", "nearest_competitor_dist_m": 467.50595099439687, "nearest_transit_dist_m": 127.82586022171105, "competitor_count_1000m": 2, "transit_stop_count_1000m": 33, "wealth_poi_count_1000m": 48, "poi_diversity_1000m": 66, "road_density_1000m": 0.012359929304619261, "pop_1000m": 115599.75, "competitor_count_3000m": 83, "transit_stop_count_3000m": 266, "wealth_poi_count_3000m": 802, "poi_diversity_3000m": 175, "road_density_3000m": 0.034847026158073453, "pop_3000m": 1450617.0 }, "geometry": { "type": "Point", "coordinates": [ 77.586635, 12.9816797 ] } },
{ "type": "Feature", "properties": { "site_id": "site_032", "nearest_competitor_dist_m": 1140.0504002807072, "nearest_transit_dist_m": 684.87511308081787, "competitor_count_1000m": 0, "transit_stop_count_1000m": 8, "wealth_poi_count_1000m": 1, "poi_diversity_1000m": 10, "road_density_1000m": 0.032134178704198518, "pop_1000m": 96563.84375, "competitor_count_3000m": 13, "transit_stop_count_3000m": 106, "wealth_poi_count_3000m": 12, "poi_diversity_3000m": 49, "road_density_3000m": 0.043937580139967028, "pop_3000m": 974841.5 }, "geometry": { "type": "Point", "coordinates": [ 77.5025175, 13.0231046 ] } },
{ "type": "Feature", "properties": { "site_id": "site_033", "nearest_competitor_dist_m": 665.09606661327871, "nearest_transit_dist_m": 169.64266792941316, "competitor_count_1000m": 2, "transit_stop_count_1000m": 18, "wealth_poi_count_1000m": 35, "poi_diversity_1000m": 60, "road_density_1000m": 0.031445291364038348, "pop_1000m": 106609.3046875, "competitor_count_3000m": 78, "transit_stop_count_3000m": 254, "wealth_poi_count_3000m": 502, "poi_diversity_3000m": 170, "road_density_3000m": 0.033422758971658834, "pop_3000m": 1247147.375 }, "geometry": { "type": "Point", "coordinates": [ 77.5846807, 12.9962885 ] } },
{ "type": "Feature", "properties": { "site_id": "site_034", "nearest_competitor_dist_m": 1591.7321903721954, "nearest_transit_dist_m": 703.70438509691871, "competitor_count_1000m": 0, "transit_stop_count_1000m": 1, "wealth_poi_count_1000m": 3, "poi_diversity_1000m": 23, "road_density_1000m": 0.013524960632156396, "pop_1000m": 5876.5068359375, "competitor_count_3000m": 14, "transit_stop_count_3000m": 31, "wealth_poi_count_3000m": 30, "poi_diversity_3000m": 58, "road_density_3000m": 0.006810412924948178, "pop_3000m": 163747.34375 }, "geometry": { "type": "Point", "coordinates": [ 77.5867994, 13.1316469 ] } },
{ "type": "Feature", "properties": { "site_id": "site_035", "nearest_competitor_dist_m": 290.8149442396936, "nearest_transit_dist_m": 357.58077538850421, "competitor_count_1000m": 11, "transit_stop_count_1000m": 23, "wealth_poi_count_1000m": 17, "poi_diversity_1000m": 39, "road_density_1000m": 0.059808253666973114, "pop_1000m": 14465.060546875, "competitor_count_3000m": 58, "transit_stop_count_3000m": 180, "wealth_poi_count_3000m": 219, "poi_diversity_3000m": 137, "road_density_3000m": 0.052708950193202916, "pop_3000m": 491858.0625 }, "geometry": { "type": "Point", "coordinates": [ 77.5567199, 12.9152401 ] } },
{ "type": "Feature", "properties": { "site_id": "site_036", "nearest_competitor_dist_m": 818.18036205803401, "nearest_transit_dist_m": 158.58311318747258, "competitor_count_1000m": 1, "transit_stop_count_1000m": 8, "wealth_poi_count_1000m": 1, "poi_diversity_1000m": 17, "road_density_1000m": 0.0391521302641634, "pop_1000m": 9318.04296875, "competitor_count_3000m": 59, "transit_stop_count_3000m": 101, "wealth_poi_count_3000m": 117, "poi_diversity_3000m": 99, "road_density_3000m": 0.041827467094793062, "pop_3000m": 88787.1484375 }, "geometry": { "type": "Point", "coordinates": [ 77.6822421, 13.0089435 ] } },
{ "type": "Feature", "properties": { "site_id": "site_037", "nearest_competitor_dist_m": 1657.5249779460701, "nearest_transit_dist_m": 564.15248051527919, "competitor_count_1000m": 0, "transit_stop_count_1000m": 7, "wealth_poi_count_1000m": 0, "poi_diversity_1000m": 16, "road_density_1000m": 0.033379559996292399, "pop_1000m": 5359.599609375, "competitor_count_3000m": 17, "transit_stop_count_3000m": 42, "wealth_poi_count_3000m": 20, "poi_diversity_3000m": 43, "road_density_3000m": 0.024251059501875661, "pop_3000m": 45297.19921875 }, "geometry": { "type": "Point", "coordinates": [ 77.6823386, 13.0358237 ] } },
{ "type": "Feature", "properties": { "site_id": "site_038", "nearest_competitor_dist_m": 2799.7105084420032, "nearest_transit_dist_m": 78.500776006813695, "competitor_count_1000m": 0, "transit_stop_count_1000m": 4, "wealth_poi_count_1000m": 0, "poi_diversity_1000m": 0, "road_density_1000m": 0.014928067035937732, "pop_1000m": 1111.98974609375, "competitor_count_3000m": 2, "transit_stop_count_3000m": 21, "wealth_poi_count_3000m": 8, "poi_diversity_3000m": 16, "road_density_3000m": 0.011301580277789037, "pop_3000m": 6306.3154296875 }, "geometry": { "type": "Point", "coordinates": [ 77.4876819, 12.8753611 ] } },
{ "type": "Feature", "properties": { "site_id": "site_039", "nearest_competitor_dist_m": 884.41760796225049, "nearest_transit_dist_m": 420.22668401063095, "competitor_count_1000m": 4, "transit_stop_count_1000m": 10, "wealth_poi_count_1000m": 3, "poi_diversity_1000m": 20, "road_density_1000m": 0.028593409573298353, "pop_1000m": 87927.96875, "competitor_count_3000m": 35, "transit_stop_count_3000m": 166, "wealth_poi_count_3000m": 141, "poi_diversity_3000m": 130, "road_density_3000m": 0.030685307388749958, "pop_3000m": 1111204.625 }, "geometry": { "type": "Point", "coordinates": [ 77.5456563, 13.0370265 ] } },
{ "type": "Feature", "properties": { "site_id": "site_040", "nearest_competitor_dist_m": 201.53320092482178, "nearest_transit_dist_m": 230.35588356313195, "competitor_count_1000m": 11, "transit_stop_count_1000m": 24, "wealth_poi_count_1000m": 43, "poi_diversity_1000m": 83, "road_density_1000m": 0.065265370394341576, "pop_1000m": 192618.5625, "competitor_count_3000m": 60, "transit_stop_count_3000m": 212, "wealth_poi_count_3000m": 175, "poi_diversity_3000m": 139, "road_density_3000m": 0.05643433625524024, "pop_3000m": 1504601.5 }, "geometry": { "type": "Point", "coordinates": [ 77.529739500000019, 12.9699345 ] } },
{ "type": "Feature", "properties": { "site_id": "site_041", "nearest_competitor_dist_m": 339.49060493325538, "nearest_transit_dist_m": 205.2602508783377, "competitor_count_1000m": 25, "transit_stop_count_1000m": 14, "wealth_poi_count_1000m": 33, "poi_diversity_1000m": 54, "road_density_1000m": 0.028371655831190338, "pop_1000m": 124376.1640625, "competitor_count_3000m": 64, "transit_stop_count_3000m": 66, "wealth_poi_count_3000m": 111, "poi_diversity_3000m": 117, "road_density_3000m": 0.020681359183019526, "pop_3000m": 416454.125 }, "geometry": { "type": "Point", "coordinates": [ 77.5846447, 13.1036469 ] } },
{ "type": "Feature", "properties": { "site_id": "site_042", "nearest_competitor_dist_m": 186.57532416577504, "nearest_transit_dist_m": 85.416503572860378, "competitor_count_1000m": 13, "transit_stop_count_1000m": 29, "wealth_poi_count_1000m": 23, "poi_diversity_1000m": 64, "road_density_1000m": 0.056673306396466477, "pop_1000m": 192639.96875, "competitor_count_3000m": 73, "transit_stop_count_3000m": 245, "wealth_poi_count_3000m": 313, "poi_diversity_3000m": 168, "road_density_3000m": 0.049954775138318995, "pop_3000m": 1545102.75 }, "geometry": { "type": "Point", "coordinates": [ 77.5438094, 13.0101928 ] } },
{ "type": "Feature", "properties": { "site_id": "site_043", "nearest_competitor_dist_m": 459.74868634181814, "nearest_transit_dist_m": 158.13552654542161, "competitor_count_1000m": 7, "transit_stop_count_1000m": 14, "wealth_poi_count_1000m": 0, "poi_diversity_1000m": 14, "road_density_1000m": 0.047247535265483344, "pop_1000m": 132398.375, "competitor_count_3000m": 20, "transit_stop_count_3000m": 90, "wealth_poi_count_3000m": 15, "poi_diversity_3000m": 60, "road_density_3000m": 0.036997083645426802, "pop_3000m": 926547.75 }, "geometry": { "type": "Point", "coordinates": [ 77.503343, 13.0377281 ] } },
{ "type": "Feature", "properties": { "site_id": "site_044", "nearest_competitor_dist_m": 174.50765915254041, "nearest_transit_dist_m": 183.30601264839413, "competitor_count_1000m": 22, "transit_stop_count_1000m": 13, "wealth_poi_count_1000m": 72, "poi_diversity_1000m": 80, "road_density_1000m": 0.049257730270432294, "pop_1000m": 10686.6318359375, "competitor_count_3000m": 99, "transit_stop_count_3000m": 178, "wealth_poi_count_3000m": 463, "poi_diversity_3000m": 177, "road_density_3000m": 0.047312843271087077, "pop_3000m": 126543.5625 }, "geometry": { "type": "Point", "coordinates": [ 77.5842689, 12.9013044 ] } },
{ "type": "Feature", "properties": { "site_id": "site_045", "nearest_competitor_dist_m": 406.23436701246396, "nearest_transit_dist_m": 205.16945431576769, "competitor_count_1000m": 3, "transit_stop_count_1000m": 14, "wealth_poi_count_1000m": 6, "poi_diversity_1000m": 31, "road_density_1000m": 0.012899045144483373, "pop_1000m": 7065.99365234375, "competitor_count_3000m": 142, "transit_stop_count_3000m": 159, "wealth_poi_count_3000m": 373, "poi_diversity_3000m": 170, "road_density_3000m": 0.036376799829890463, "pop_3000m": 145944.40625 }, "geometry": { "type": "Point", "coordinates": [ 77.6540145, 12.9957086 ] } },
{ "type": "Feature", "properties": { "site_id": "site_046", "nearest_competitor_dist_m": 511.76422770662663, "nearest_transit_dist_m": 168.71781545086461, "competitor_count_1000m": 6, "transit_stop_count_1000m": 25, "wealth_poi_count_1000m": 4, "poi_diversity_1000m": 26, "road_density_1000m": 0.039815744581448695, "pop_1000m": 79575.2734375, "competitor_count_3000m": 17, "transit_stop_count_3000m": 141, "wealth_poi_count_3000m": 62, "poi_diversity_3000m": 85, "road_density_3000m": 0.044943874886092056, "pop_3000m": 672122.0 }, "geometry": { "type": "Point", "coordinates": [ 77.5020246, 12.9560631 ] } },
{ "type": "Feature", "properties": { "site_id": "site_047", "nearest_competitor_dist_m": 1615.5215303961718, "nearest_transit_dist_m": 999.52284132318391, "competitor_count_1000m": 0, "transit_stop_count_1000m": 1, "wealth_poi_count_1000m": 2, "poi_diversity_1000m": 6, "road_density_1000m": 0.011596385417794544, "pop_1000m": 3348.361328125, "competitor_count_3000m": 11, "transit_stop_count_3000m": 25, "wealth_poi_count_3000m": 66, "poi_diversity_3000m": 120, "road_density_3000m": 0.0076300004768058427, "pop_3000m": 21956.3671875 }, "geometry": { "type": "Point", "coordinates": [ 77.76475880000001, 12.9403899 ] } },
{ "type": "Feature", "properties": { "site_id": "site_048", "nearest_competitor_dist_m": 309.99021612053457, "nearest_transit_dist_m": 217.96210083624706, "competitor_count_1000m": 12, "transit_stop_count_1000m": 17, "wealth_poi_count_1000m": 32, "poi_diversity_1000m": 65, "road_density_1000m": 0.041147269194704017, "pop_1000m": 13330.283203125, "competitor_count_3000m": 123, "transit_stop_count_3000m": 261, "wealth_poi_count_3000m": 810, "poi_diversity_3000m": 188, "road_density_3000m": 0.041835601890472369, "pop_3000m": 503418.5 }, "geometry": { "type": "Point", "coordinates": [ 77.5986765, 12.92808 ] } },
{ "type": "Feature", "properties": { "site_id": "site_049", "nearest_competitor_dist_m": 1662.233630272613, "nearest_transit_dist_m": 16.493755913507353, "competitor_count_1000m": 0, "transit_stop_count_1000m": 2, "wealth_poi_count_1000m": 8, "poi_diversity_1000m": 7, "road_density_1000m": 0.0086514051141831829, "pop_1000m": 3558.77392578125, "competitor_count_3000m": 34, "transit_stop_count_3000m": 77, "wealth_poi_count_3000m": 143, "poi_diversity_3000m": 107, "road_density_3000m": 0.014506345476594098, "pop_3000m": 37132.85546875 }, "geometry": { "type": "Point", "coordinates": [ 77.7369734, 12.9977971 ] } }
]
}
