{
"type": "FeatureCollection",
"name": "candidate_sites",
"crs": { "type": "name", "properties": { "name": "urn:ogc:def:crs:OGC:1.3:CRS84" } },
"features": [
{ "type": "Feature", "properties": { "site_id": "site_000" }, "geometry": { "type": "Point", "coordinates": [ 77.5154765, 12.9562404 ] } },
{ "type": "Feature", "properties": { "site_id": "site_001" }, "geometry": { "type": "Point", "coordinates": [ 77.6251506, 12.8737596 ] } },
{ "type": "Feature", "properties": { "site_id": "site_002" }, "geometry": { "type": "Point", "coordinates": [ 77.6411129, 13.1035446 ] } },
{ "type": "Feature", "properties": { "site_id": "site_003" }, "geometry": { "type": "Point", "coordinates": [ 77.5862194, 13.1180418 ] } },
{ "type": "Feature", "properties": { "site_id": "site_004" }, "geometry": { "type": "Point", "coordinates": [ 77.7508276, 12.9666996 ] } },
{ "type": "Feature", "properties": { "site_id": "site_005" }, "geometry": { "type": "Point", "coordinates": [ 77.6952307, 12.9137851 ] } },
{ "type": "Feature", "properties": { "site_id": "site_006" }, "geometry": { "type": "Point", "coordinates": [ 77.7363476, 12.9402241 ] } },
{ "type": "Feature", "properties": { "site_id": "site_007" }, "geometry": { "type": "Point", "coordinates": [ 77.6537112, 12.9547083 ] } },
{ "type": "Feature", "properties": { "site_id": "site_008" }, "geometry": { "type": "Point", "coordinates": [ 77.7233732, 12.9803758 ] } },
{ "type": "Feature", "properties": { "site_id": "site_009" }, "geometry": { "type": "Point", "coordinates": [ 77.6676924, 12.9814391 ] } },
{ "type": "Feature", "properties": { "site_id": "site_010" }, "geometry": { "type": "Point", "coordinates": [ 77.5570004, 12.969284 ] } },
{ "type": "Feature", "properties": { "site_id": "site_011" }, "geometry": { "type": "Point", "coordinates": [ 77.6121185, 12.914529 ] } },
{ "type": "Feature", "properties": { "site_id": "site_012" }, "geometry": { "type": "Point", "coordinates": [ 77.681617, 12.9682071 ] } },
{ "type": "Feature", "properties": { "site_id": "site_013" }, "geometry": { "type": "Point", "coordinates": [ 77.7504789, 12.9267756 ] } },
{ "type": "Feature", "properties": { "site_id": "site_014" }, "geometry": { "type": "Point", "coordinates": [ 77.6130226, 13.0093877 ] } },
{ "type": "Feature", "properties": { "site_id": "site_015" }, "geometry": { "type": "Point", "coordinates": [ 77.5997363, 13.0637713 ] } },
{ "type": "Feature", "properties": { "site_id": "site_016" }, "geometry": { "type": "Point", "coordinates": [ 77.6535912, 12.9130754 ] } },
{ "type": "Feature", "properties": { "site_id": "site_017" }, "geometry": { "type": "Point", "coordinates": [ 77.5426839, 12.9291699 ] } },
{ "type": "Feature", "properties": { "site_id": "site_018" }, "geometry": { "type": "Point", "coordinates": [ 77.5575291, 13.0498014 ] } },
{ "type": "Feature", "properties": { "site_id": "site_019" }, "geometry": { "type": "Point", "coordinates": [ 77.6951302, 12.980962 ] } },
{ "type": "Feature", "properties": { "site_id": "site_020" }, "geometry": { "type": "Point", "coordinates": [ 77.5297246, 12.9561456 ] } },
{ "type": "Feature", "properties": { "site_id": "site_021" }, "geometry": { "type": "Point", "coordinates": [ 77.5559574, 12.8879475 ] } },
{ "type": "Feature", "properties": { "site_id": "site_022" }, "geometry": { "type": "Point", "coordinates": [ 77.627241, 13.1045204 ] } },
{ "type": "Feature", "properties": { "site_id": "site_023" }, "geometry": { "type": "Point", "coordinates": [ 77.6819967, 13.0222801 ] } },
{ "type": "Feature", "properties": { "site_id": "site_024" }, "geometry": { "type": "Point", "coordinates": [ 77.7366034, 12.9674196 ] } },
{ "type": "Feature", "properties": { "site_id": "site_025" }, "geometry": { "type": "Point", "coordinates": [ 77.6550085, 13.0497629 ] } },
{ "type": "Feature", "properties": { "site_id": "site_026" }, "geometry": { "type": "Point", "coordinates": [ 77.5845805, 12.941592 ] } },
{ "type": "Feature", "properties": { "site_id": "site_027" }, "geometry": { "type": "Point", "coordinates": [ 77.5287178, 12.9019322 ] } },
{ "type": "Feature", "properties": { "site_id": "site_028" }, "geometry": { "type": "Point", "coordinates": [ 77.4882238, 12.9567886 ] } },
{ "type": "Feature", "properties": { "site_id": "site_029" }, "geometry": { "type": "Point", "coordinates": [ 77.5849303, 12.9286443 ] } },
{ "type": "Feature", "properties": { "site_id": "site_030" }, "geometry": { "type": "Point", "coordinates": [ 77.5022291, 12.9966929 ] } },
{ "type": "Feature", "properties": { "site_id": "site_031" }, "geometry": { "type": "Point", "coordinates": [ 77.586635, 12.9816797 ] } },
{ "type": "Feature", "properties": { "site_id": "site_032" }, "geometry": { "type": "Point", "coordinates": [ 77.5025175, 13.0231046 ] } },
{ "type": "Feature", "properties": { "site_id": "site_033" }, "geometry": { "type": "Point", "coordinates": [ 77.5846807, 12.9962885 ] } },
{ "type": "Feature", "properties": { "site_id": "site_034" }, "geometry": { "type": "Point", "coordinates": [ 77.5867994, 13.1316469 ] } },
{ "type": "Feature", "properties": { "site_id": "site_035" }, "geometry": { "type": "Point", "coordinates": [ 77.5567199, 12.9152401 ] } },
{ "type": "Feature", "properties": { "site_id": "site_036" }, "geometry": { "type": "Point", "coordinates": [ 77.6822421, 13.0089435 ] } },
{ "type": "Feature", "properties": { "site_id": "site_037" }, "geometry": { "type": "Point", "coordinates": [ 77.6823386, 13.0358237 ] } },
{ "type": "Feature", "properties": { "site_id": "site_038" }, "geometry": { "type": "Point", "coordinates": [ 77.4876819, 12.8753611 ] } },
{ "type": "Feature", "properties": { "site_id": "site_039" }, "geometry": { "type": "Point", "coordinates": [ 77.5456563, 13.0370265 ] } },
{ "type": "Feature", "properties": { "site_id": "site_040" }, "geometry": { "type": "Point", "coordinates": [ 77.5297395, 12.9699345 ] } },
{ "type": "Feature", "properties": { "site_id": "site_041" }, "geometry": { "type": "Point", "coordinates": [ 77.5846447, 13.1036469 ] } },
{ "type": "Feature", "properties": { "site_id": "site_042" }, "geometry": { "type": "Point", "coordinates": [ 77.5438094, 13.0101928 ] } },
{ "type": "Feature", "properties": { "site_id": "site_043" }, "geometry": { "type": "Point", "coordinates": [ 77.503343, 13.0377281 ] } },
{ "type": "Feature", "properties": { "site_id": "site_044" }, "geometry": { "type": "Point", "coordinates": [ 77.5842689, 12.9013044 ] } },
{ "type": "Feature", "properties": { "site_id": "site_045" }, "geometry": { "type": "Point", "coordinates": [ 77.6540145, 12.9957086 ] } },
{ "type": "Feature", "properties": { "site_id": "site_046" }, "geometry": { "type": "Point", "coordinates": [ 77.5020246, 12.9560631 ] } },
{ "type": "Feature", "properties": { "site_id": "site_047" }, "geometry": { "type": "Point", "coordinates": [ 77.7647588, 12.9403899 ] } },
{ "type": "Feature", "properties": { "site_id": "site_048" }, "geometry": { "type": "Point", "coordinates": [ 77.5986765, 12.92808 ] } },
{ "type": "Feature", "properties": { "site_id": "site_049" }, "geometry": { "type": "Point", "coordinates": [ 77.7369734, 12.9977971 ] } }
]
}
